sat44051
1 44051U 18084M   20046.51030345  .01068449  00000-0  64504-2 0  9991
2 44051  97.8467 179.0932 0022798 289.4307  70.0005 15.74889176 56536
